start=new Date('2022-12-08T00:00:00.000Z').valueOf();
sats=[{"CLASSIFICATION_TYPE":"U","ECCENTRICITY":"0.00012590","OBJECT_ID":"2020-001W","MEAN_MOTION_DDOT":"0.0000000000000","RCS_SIZE":"LARGE","SITE":"AFETR","REF_FRAME":"TEME","CENTER_NAME":"EARTH","LAUNCH_DATE":"2020-01-07","TLE_LINE1":"1 44934U 20001W   22341.47790528 -.00002728  00000-0 -16437-3 0  9996","INCLINATION":"53.0544","ARG_OF_PERICENTER":"91.2363","MEAN_ANOMALY":"268.8770","OBJECT_TYPE":"PAYLOAD","OBJECT_NAME":"STARLINK-1071","DECAY_DATE":null,"SEMIMAJOR_AXIS":"6925.384","FILE":"3684212","RA_OF_ASC_NODE":"260.7209","ELEMENT_SET_NO":"999","TLE_LINE2":"2 44934  53.0544 260.7209 0001259  91.2363 268.8770 15.06388552161036","COUNTRY_CODE":"US","TIME_SYSTEM":"UTC","APOAPSIS":"548.121","NORAD_CAT_ID":"44934","MEAN_MOTION":"15.06388552","BSTAR":"-0.00016437000000","PERIAPSIS":"546.377","REV_AT_EPOCH":"16103","MEAN_ELEMENT_THEORY":"SGP4","MEAN_MOTION_DOT":"-0.00002728","EPOCH":"2022-12-07T11:28:11.016192","PERIOD":"95.593","GP_ID":"219737767","EPHEMERIS_TYPE":"0"},{"INCLINATION":"53.0543","MEAN_ANOMALY":"294.0916","ARG_OF_PERICENTER":"66.0235","OBJECT_TYPE":"PAYLOAD","ECCENTRICITY":"0.00015520","CLASSIFICATION_TYPE":"U","MEAN_MOTION_DDOT":"0.0000000000000","OBJECT_ID":"2020-001Z","RCS_SIZE":"LARGE","SITE":"AFETR","REF_FRAME":"TEME","LAUNCH_DATE":"2020-01-07","CENTER_NAME":"EARTH","TLE_LINE1":"1 44937U 20001Z   22341.78753660 -.00000158  00000-0  82910-5 0  9994","BSTAR":"0.00000829100000","REV_AT_EPOCH":"16108","PERIAPSIS":"546.161","MEAN_ELEMENT_THEORY":"SGP4","EPOCH":"2022-12-07T18:54:03.162240","MEAN_MOTION_DOT":"-0.00000158","PERIOD":"95.593","EPHEMERIS_TYPE":"0","GP_ID":"219738017","OBJECT_NAME":"STARLINK-1079","DECAY_DATE":null,"SEMIMAJOR_AXIS":"6925.371","FILE":"3684212","TLE_LINE2":"2 44937  53.0543 259.3328 0001552  66.0235 294.0916 15.06392651161081","RA_OF_ASC_NODE":"259.3328","ELEMENT_SET_NO":"999","TIME_SYSTEM":"UTC","COUNTRY_CODE":"US","NORAD_CAT_ID":"44937","APOAPSIS":"548.311","MEAN_MOTION":"15.06392651"},{"FILE":"3684212","RA_OF_ASC_NODE":"259.1731","ELEMENT_SET_NO":"999","TLE_LINE2":"2 44938  53.0535 259.1731 0001605  63.7280 296.3874 15.06400983161088","OBJECT_NAME":"STARLINK-1082","DECAY_DATE":null,"SEMIMAJOR_AXIS":"6925.346","APOAPSIS":"548.322","NORAD_CAT_ID":"44938","MEAN_MOTION":"15.06400983","COUNTRY_CODE":"US","TIME_SYSTEM":"UTC","MEAN_ELEMENT_THEORY":"SGP4","MEAN_MOTION_DOT":"0.00010013","EPOCH":"2022-12-07T19:41:48.981120","BSTAR":"0.00069011000000","PERIAPSIS":"546.099","REV_AT_EPOCH":"16108","GP_ID":"219738267","EPHEMERIS_TYPE":"0","PERIOD":"95.592","RCS_SIZE":"LARGE","SITE":"AFETR","CLASSIFICATION_TYPE":"U","ECCENTRICITY":"0.00016050","OBJECT_ID":"2020-001AA","MEAN_MOTION_DDOT":"0.0000000000000","TLE_LINE1":"1 44938U 20001AA  22341.82070580  .00010013  00000-0  69011-3 0  9998","REF_FRAME":"TEME","CENTER_NAME":"EARTH","LAUNCH_DATE":"2020-01-07","INCLINATION":"53.0535","ARG_OF_PERICENTER":"63.7280","MEAN_ANOMALY":"296.3874","OBJECT_TYPE":"PAYLOAD"},{"SEMIMAJOR_AXIS":"6925.385","DECAY_DATE":null,"OBJECT_NAME":"STARLINK-1083","TLE_LINE2":"2 44939  53.0551 260.6332 0001707  70.0155 290.1018 15.06388143161036","ELEMENT_SET_NO":"999","RA_OF_ASC_NODE":"260.6332","FILE":"3684212","TIME_SYSTEM":"UTC","COUNTRY_CODE":"US","MEAN_MOTION":"15.06388143","NORAD_CAT_ID":"44939","APOAPSIS":"548.432","REV_AT_EPOCH":"16103","PERIAPSIS":"546.068","BSTAR":"0.00004916400000","EPOCH":"2022-12-07T11:54:44.041248","MEAN_MOTION_DOT":"0.00000451","MEAN_ELEMENT_THEORY":"SGP4","PERIOD":"95.593","EPHEMERIS_TYPE":"0","GP_ID":"219738516","OBJECT_ID":"2020-001AB","MEAN_MOTION_DDOT":"0.0000000000000","ECCENTRICITY":"0.00017070","CLASSIFICATION_TYPE":"U","SITE":"AFETR","RCS_SIZE":"LARGE","LAUNCH_DATE":"2020-01-07","CENTER_NAME":"EARTH","REF_FRAME":"TEME","TLE_LINE1":"1 44939U 20001AB  22341.49634307  .00000451  00000-0  49164-4 0  9998","INCLINATION":"53.0551","OBJECT_TYPE":"PAYLOAD","MEAN_ANOMALY":"290.1018","ARG_OF_PERICENTER":"70.0155"},{"PERIAPSIS":"545.899","REV_AT_EPOCH":"16103","BSTAR":"-0.00002918800000","MEAN_MOTION_DOT":"-0.00000716","EPOCH":"2022-12-07T12:10:39.460224","MEAN_ELEMENT_THEORY":"SGP4","PERIOD":"95.592","GP_ID":"219737268","EPHEMERIS_TYPE":"0","SEMIMAJOR_AXIS":"6925.352","DECAY_DATE":null,"OBJECT_NAME":"STARLINK-1091","ELEMENT_SET_NO":"999","RA_OF_ASC_NODE":"260.5807","TLE_LINE2":"2 44940  53.0549 260.5807 0001903  56.2913 303.8257 15.06398848161037","FILE":"3684212","COUNTRY_CODE":"US","TIME_SYSTEM":"UTC","MEAN_MOTION":"15.06398848","APOAPSIS":"548.535","NORAD_CAT_ID":"44940","INCLINATION":"53.0549","OBJECT_TYPE":"PAYLOAD","ARG_OF_PERICENTER":"56.2913","MEAN_ANOMALY":"303.8257","MEAN_MOTION_DDOT":"0.0000000000000","OBJECT_ID":"2020-001AC","CLASSIFICATION_TYPE":"U","ECCENTRICITY":"0.00019030","SITE":"AFETR","RCS_SIZE":"LARGE","CENTER_NAME":"EARTH","LAUNCH_DATE":"2020-01-07","REF_FRAME":"TEME","TLE_LINE1":"1 44940U 20001AC  22341.50740116 -.00000716  00000-0 -29188-4 0  9998"},{"MEAN_ELEMENT_THEORY":"SGP4","EPOCH":"2022-12-07T04:44:48.859008","MEAN_MOTION_DOT":"-0.00002768","BSTAR":"-0.00016706000000","REV_AT_EPOCH":"16099","PERIAPSIS":"545.964","EPHEMERIS_TYPE":"0","GP_ID":"219737517","PERIOD":"95.593","FILE":"3684212","TLE_LINE2":"2 44941  53.0563 261.9724 0001859  78.7231 281.3967 15.06387614160990","RA_OF_ASC_NODE":"261.9724","ELEMENT_SET_NO":"999","DECAY_DATE":null,"OBJECT_NAME":"STARLINK-1094","SEMIMAJOR_AXIS":"6925.387","NORAD_CAT_ID":"44941","APOAPSIS":"548.539","MEAN_MOTION":"15.06387614","TIME_SYSTEM":"UTC","COUNTRY_CODE":"US","INCLINATION":"53.0563","MEAN_ANOMALY":"281.3967","ARG_OF_PERICENTER":"78.7231","OBJECT_TYPE":"PAYLOAD","RCS_SIZE":"LARGE","SITE":"AFETR","ECCENTRICITY":"0.00018590","CLASSIFICATION_TYPE":"U","MEAN_MOTION_DDOT":"0.0000000000000","OBJECT_ID":"2020-001AD","TLE_LINE1":"1 44941U 20001AD  22341.19778772 -.00002768  00000-0 -16706-3 0  9993","REF_FRAME":"TEME","LAUNCH_DATE":"2020-01-07","CENTER_NAME":"EARTH"},{"OBJECT_NAME":"STARLINK-1096","DECAY_DATE":null,"SEMIMAJOR_AXIS":"6906.359","FILE":"3684212","TLE_LINE2":"2 44942  53.0559 256.7483 0003884  81.4932 278.6500 15.12617347161099","RA_OF_ASC_NODE":"256.7483","ELEMENT_SET_NO":"999","TIME_SYSTEM":"UTC","COUNTRY_CODE":"US","NORAD_CAT_ID":"44942","APOAPSIS":"530.906","MEAN_MOTION":"15.12617347","BSTAR":"0.00124930000000","REV_AT_EPOCH":"16109","PERIAPSIS":"525.541","MEAN_ELEMENT_THEORY":"SGP4","EPOCH":"2022-12-07T11:03:19.426464","MEAN_MOTION_DOT":"0.00021845","PERIOD":"95.199","EPHEMERIS_TYPE":"0","GP_ID":"219738768","ECCENTRICITY":"0.00038840","CLASSIFICATION_TYPE":"U","OBJECT_ID":"2020-001AE","MEAN_MOTION_DDOT":"0.0000000000000","RCS_SIZE":"LARGE","SITE":"AFETR","REF_FRAME":"TEME","LAUNCH_DATE":"2020-01-07","CENTER_NAME":"EARTH","TLE_LINE1":"1 44942U 20001AE  22341.46064151  .00021845  00000-0  12493-2 0  9996","INCLINATION":"53.0559","MEAN_ANOMALY":"278.6500","ARG_OF_PERICENTER":"81.4932","OBJECT_TYPE":"PAYLOAD"},{"CENTER_NAME":"EARTH","LAUNCH_DATE":"2020-01-07","REF_FRAME":"TEME","TLE_LINE1":"1 44943U 20001AF  22341.49265931 -.00000983  00000-0 -47106-4 0  9992","OBJECT_ID":"2020-001AF","MEAN_MOTION_DDOT":"0.0000000000000","CLASSIFICATION_TYPE":"U","ECCENTRICITY":"0.00016620","SITE":"AFETR","RCS_SIZE":"LARGE","OBJECT_TYPE":"PAYLOAD","ARG_OF_PERICENTER":"56.0854","MEAN_ANOMALY":"304.0293","INCLINATION":"53.0540","COUNTRY_CODE":"US","TIME_SYSTEM":"UTC","MEAN_MOTION":"15.06392368","APOAPSIS":"548.388","NORAD_CAT_ID":"44943","SEMIMAJOR_AXIS":"6925.372","DECAY_DATE":null,"OBJECT_NAME":"STARLINK-1100","RA_OF_ASC_NODE":"260.6570","ELEMENT_SET_NO":"999","TLE_LINE2":"2 44943  53.0540 260.6570 0001662  56.0854 304.0293 15.06392368161037","FILE":"3684212","PERIOD":"95.593","GP_ID":"219739017","EPHEMERIS_TYPE":"0","PERIAPSIS":"546.086","REV_AT_EPOCH":"16103","BSTAR":"-0.00004710600000","MEAN_MOTION_DOT":"-0.00000983","EPOCH":"2022-12-07T11:49:25.764384","MEAN_ELEMENT_THEORY":"SGP4"},{"RA_OF_ASC_NODE":"259.2416","ELEMENT_SET_NO":"999","TLE_LINE2":"2 44944  53.0538 259.2416 0001542  65.5318 294.5832 15.06397622161080","FILE":"3684212","SEMIMAJOR_AXIS":"6925.356","OBJECT_NAME":"STARLINK-1108","DECAY_DATE":null,"MEAN_MOTION":"15.06397622","APOAPSIS":"548.289","NORAD_CAT_ID":"44944","COUNTRY_CODE":"US","TIME_SYSTEM":"UTC","MEAN_MOTION_DOT":"0.00001483","EPOCH":"2022-12-07T19:20:34.709856","MEAN_ELEMENT_THEORY":"SGP4","PERIAPSIS":"546.153","REV_AT_EPOCH":"16108","BSTAR":"0.00011842000000","GP_ID":"219737768","EPHEMERIS_TYPE":"0","PERIOD":"95.592","SITE":"AFETR","RCS_SIZE":"LARGE","OBJECT_ID":"2020-001AG","MEAN_MOTION_DDOT":"0.0000000000000","CLASSIFICATION_TYPE":"U","ECCENTRICITY":"0.00015420","TLE_LINE1":"1 44944U 20001AG  22341.80595729  .00001483  00000-0  11842-3 0  9990","CENTER_NAME":"EARTH","LAUNCH_DATE":"2020-01-07","REF_FRAME":"TEME","INCLINATION":"53.0538","OBJECT_TYPE":"PAYLOAD","ARG_OF_PERICENTER":"65.5318","MEAN_ANOMALY":"294.5832"},{"CLASSIFICATION_TYPE":"U","ECCENTRICITY":"0.00016960","OBJECT_ID":"2020-001AH","MEAN_MOTION_DDOT":"0.0000000000000","RCS_SIZE":"LARGE","SITE":"AFETR","REF_FRAME":"TEME","CENTER_NAME":"EARTH","LAUNCH_DATE":"2020-01-07","TLE_LINE1":"1 44945U 20001AH  22341.76910149  .00000457  00000-0  49562-4 0  9994","INCLINATION":"53.0556","ARG_OF_PERICENTER":"70.4999","MEAN_ANOMALY":"289.6173","OBJECT_TYPE":"PAYLOAD","OBJECT_NAME":"STARLINK-1109","DECAY_DATE":null,"SEMIMAJOR_AXIS":"6925.374","FILE":"3684212","ELEMENT_SET_NO":"999","RA_OF_ASC_NODE":"259.4075","TLE_LINE2":"2 44945  53.0556 259.4075 0001696  70.4999 289.6173 15.06391797161073","COUNTRY_CODE":"US","TIME_SYSTEM":"UTC","APOAPSIS":"548.413","NORAD_CAT_ID":"44945","MEAN_MOTION":"15.06391797","BSTAR":"0.00004956200000","PERIAPSIS":"546.064","REV_AT_EPOCH":"16107","MEAN_ELEMENT_THEORY":"SGP4","MEAN_MOTION_DOT":"0.00000457","EPOCH":"2022-12-07T18:27:30.368736","PERIOD":"95.593","GP_ID":"219738018","EPHEMERIS_TYPE":"0"}];
